{"type": "FeatureCollection", "features": [ {"type": "Feature", "properties": {"norad_id": 39620, "name": "COSMOS 2492 (754)", "group": "gnss", "lat": -0.464998218879673, "lon": 140.19258803839722, "alt_km": 19154.819360084482, "timestamp": "2025-12-20T18:51:31.957208+00:00", "meta": {"OBJECT_NAME": "COSMOS 2492 (754)", "OBJECT_ID": "2014-012A", "EPOCH": "2025-12-20T01:56:38.014656", "MEAN_MOTION": 2.13103387, "ECCENTRICITY": 0.00142311, "INCLINATION": 65.4033, "RA_OF_ASC_NODE": 320.0211, "ARG_OF_PERICENTER": 312.7815, "MEAN_ANOMALY": 47.0902, "EPHEMERIS_TYPE": 0, "CLASSIFICATION_TYPE": "U", "NORAD_CAT_ID": 39620, "ELEMENT_SET_NO": 999, "REV_AT_EPOCH": 9142, "BSTAR": 0, "MEAN_MOTION_DOT": -5.4e-07, "MEAN_MOTION_DDOT": 0}, "tle": {"line1": "1 39620U 14012A   25354.08099554 -.00000054  00000+0  00000+0 0  9995", "line2": "2 39620  65.4033 320.0211 0014231 312.7815  47.0902  2.13103387 91426"}}, "geometry": {"type": "Point", "coordinates": [140.19258803839722, -0.464998218879673]}}, {"type": "Feature", "properties": {"norad_id": 39635, "name": "IRNSS-1B", "group": "gnss", "lat": -1.9955900122028114, "lon": 67.09931689956402, "alt_km": 35750.15935795802, "timestamp": "2025-12-20T18:51:31.957220+00:00", "meta": {"OBJECT_NAME": "IRNSS-1B", "OBJECT_ID": "2014-017A", "EPOCH": "2025-12-19T18:39:43.398432", "MEAN_MOTION": 1.00270773, "ECCENTRICITY": 0.00187667, "INCLINATION": 29.2538, "RA_OF_ASC_NODE": 243.4836, "ARG_OF_PERICENTER": 246.8135, "MEAN_ANOMALY": 293.6282, "EPHEMERIS_TYPE": 0, "CLASSIFICATION_TYPE": "U", "NORAD_CAT_ID": 39635, "ELEMENT_SET_NO": 999, "REV_AT_EPOCH": 4299, "BSTAR": 0, "MEAN_MOTION_DOT": 1.52e-06, "MEAN_MOTION_DDOT": 0}, "tle": {"line1": "1 39635U 14017A   25353.77758563  .00000152  00000+0  00000+0 0  9991", "line2": "2 39635  29.2538 243.4836 0018766 246.8135 293.6282  1.00270773 42997"}}, "geometry": {"type": "Point", "coordinates": [67.09931689956402, -1.9955900122028114]}}, {"type": "Feature", "properties": {"norad_id": 39727, "name": "LUCH 5V (SDCM/PRN 141)", "group": "gnss", "lat": 2.757030598130665, "lon": 107.03716118269696, "alt_km": 35805.44791090656, "timestamp": "2025-12-20T18:51:31.957232+00:00", "meta": {"OBJECT_NAME": "LUCH 5V (SDCM/PRN 141)", "OBJECT_ID": "2014-023A", "EPOCH": "2025-12-19T17:07:14.606400", "MEAN_MOTION": 1.00267053, "ECCENTRICITY": 0.00043201, "INCLINATION": 4.6856, "RA_OF_ASC_NODE": 71.4767, "ARG_OF_PERICENTER": 213.4503, "MEAN_ANOMALY": 155.0982, "EPHEMERIS_TYPE": 0, "CLASSIFICATION_TYPE": "U", "NORAD_CAT_ID": 39727, "ELEMENT_SET_NO": 999, "REV_AT_EPOCH": 4256, "BSTAR": 0, "MEAN_MOTION_DOT": -2.47e-06, "MEAN_MOTION_DDOT": 0}, "tle": {"line1": "1 39727U 14023A   25353.71336350 -.00000247  00000+0  00000+0 0  9996", "line2": "2 39727   4.6856  71.4767 0004320 213.4503 155.0982  1.00267053 42569"}}, "geometry": {"type": "Point", "coordinates": [107.03716118269696, 2.757030598130665]}}, {"type": "Feature", "properties": {"norad_id": 39741, "name": "GPS BIIF-6  (PRN 06)", "group": "gnss", "lat": -37.16154170344013, "lon": -171.52065998718226, "alt_km": 20191.314263505043, "timestamp": "2025-12-20T18:51:31.957243+00:00", "meta": {"OBJECT_NAME": "GPS BIIF-6  (PRN 06)", "OBJECT_ID": "2014-026A", "EPOCH": "2025-12-18T23:24:45.525888", "MEAN_MOTION": 2.00561009, "ECCENTRICITY": 0.00393411, "INCLINATION": 56.5812, "RA_OF_ASC_NODE": 338.5339, "ARG_OF_PERICENTER": 319.0443, "MEAN_ANOMALY": 40.6665, "EPHEMERIS_TYPE": 0, "CLASSIFICATION_TYPE": "U", "NORAD_CAT_ID": 39741, "ELEMENT_SET_NO": 999, "REV_AT_EPOCH": 8492, "BSTAR": 0, "MEAN_MOTION_DOT": -8.1e-07, "MEAN_MOTION_DDOT": 0}, "tle": {"line1": "1 39741U 14026A   25352.97552692 -.00000081  00000+0  00000+0 0  9997", "line2": "2 39741  56.5812 338.5339 0039341 319.0443  40.6665  2.00561009 84924"}}, "geometry": {"type": "Point", "coordinates": [-171.52065998718226, -37.16154170344013]}}, {"type": "Feature", "properties": {"norad_id": 40001, "name": "COSMOS 2500 (755)", "group": "gnss", "lat": 42.977981476917705, "lon": -14.925951852022479, "alt_km": 19144.09363519983, "timestamp": "2025-12-20T18:51:31.957254+00:00", "meta": {"OBJECT_NAME": "COSMOS 2500 (755)", "OBJECT_ID": "2014-032A", "EPOCH": "2025-12-20T06:04:27.939360", "MEAN_MOTION": 2.13106249, "ECCENTRICITY": 0.00077498, "INCLINATION": 65.339, "RA_OF_ASC_NODE": 319.7771, "ARG_OF_PERICENTER": 219.4032, "MEAN_ANOMALY": 140.5324, "EPHEMERIS_TYPE": 0, "CLASSIFICATION_TYPE": "U", "NORAD_CAT_ID": 40001, "ELEMENT_SET_NO": 999, "REV_AT_EPOCH": 8964, "BSTAR": 0, "MEAN_MOTION_DOT": -5.3e-07, "MEAN_MOTION_DDOT": 0}, "tle": {"line1": "1 40001U 14032A   25354.25310115 -.00000053  00000+0  00000+0 0  9999", "line2": "2 40001  65.3390 319.7771 0007749 219.4032 140.5324  2.13106249 89640"}}, "geometry": {"type": "Point", "coordinates": [-14.925951852022479, 42.977981476917705]}}, {"type": "Feature", "properties": {"norad_id": 40105, "name": "GPS BIIF-7  (PRN 09)", "group": "gnss", "lat": 12.373025829471192, "lon": -93.1725628097479, "alt_km": 20118.52984239924, "timestamp": "2025-12-20T18:51:31.957267+00:00", "meta": {"OBJECT_NAME": "GPS BIIF-7  (PRN 09)", "OBJECT_ID": "2014-045A", "EPOCH": "2025-12-18T01:34:21.644256", "MEAN_MOTION": 2.00572958, "ECCENTRICITY": 0.00325491, "INCLINATION": 55.2322, "RA_OF_ASC_NODE": 95.6864, "ARG_OF_PERICENTER": 120.0469, "MEAN_ANOMALY": 240.2601, "EPHEMERIS_TYPE": 0, "CLASSIFICATION_TYPE": "U", "NORAD_CAT_ID": 40105, "ELEMENT_SET_NO": 999, "REV_AT_EPOCH": 8244, "BSTAR": 0, "MEAN_MOTION_DOT": -3.8e-07, "MEAN_MOTION_DDOT": 0}, "tle": {"line1": "1 40105U 14045A   25352.06552829 -.00000038  00000+0  00000+0 0  9998", "line2": "2 40105  55.2322  95.6864 0032549 120.0469 240.2601  2.00572958 82445"}}, "geometry": {"type": "Point", "coordinates": [-93.1725628097479, 12.373025829471192]}}, {"type": "Feature", "properties": {"norad_id": 40128, "name": "GSAT0201 (GALILEO 5)", "group": "gnss", "lat": -32.51055920786373, "lon": 134.2393665913894, "alt_km": 18367.103259284006, "timestamp": "2025-12-20T18:51:31.957278+00:00", "meta": {"OBJECT_NAME": "GSAT0201 (GALILEO 5)", "OBJECT_ID": "2014-050A", "EPOCH": "2025-12-18T20:33:33.240672", "MEAN_MOTION": 1.85519721, "ECCENTRICITY": 0.1648519, "INCLINATION": 49.0697, "RA_OF_ASC_NODE": 280.8143, "ARG_OF_PERICENTER": 172.5106, "MEAN_ANOMALY": 190.3447, "EPHEMERIS_TYPE": 0, "CLASSIFICATION_TYPE": "U", "NORAD_CAT_ID": 40128, "ELEMENT_SET_NO": 999, "REV_AT_EPOCH": 7497, "BSTAR": 0, "MEAN_MOTION_DOT": -5.8e-07, "MEAN_MOTION_DDOT": 0}, "tle": {"line1": "1 40128U 14050A   25352.85663473 -.00000058  00000+0  00000+0 0  9996", "line2": "2 40128  49.0697 280.8143 1648519 172.5106 190.3447  1.85519721 74978"}}, "geometry": {"type": "Point", "coordinates": [134.2393665913894, -32.51055920786373]}}, {"type": "Feature", "properties": {"norad_id": 40129, "name": "GSAT0202 (GALILEO 6)", "group": "gnss", "lat": 20.749680999188136, "lon": -61.04194435862032, "alt_km": 25112.31707009617, "timestamp": "2025-12-20T18:51:31.957289+00:00", "meta": {"OBJECT_NAME": "GSAT0202 (GALILEO 6)", "OBJECT_ID": "2014-050B", "EPOCH": "2025-12-18T13:46:22.484640", "MEAN_MOTION": 1.85520466, "ECCENTRICITY": 0.16491259, "INCLINATION": 49.0858, "RA_OF_ASC_NODE": 279.9095, "ARG_OF_PERICENTER": 173.2442, "MEAN_ANOMALY": 189.3393, "EPHEMERIS_TYPE": 0, "CLASSIFICATION_TYPE": "U", "NORAD_CAT_ID": 40129, "ELEMENT_SET_NO": 999, "REV_AT_EPOCH": 7713, "BSTAR": 0, "MEAN_MOTION_DOT": -5.9e-07, "MEAN_MOTION_DDOT": 0}, "tle": {"line1": "1 40129U 14050B   25352.57387135 -.00000059  00000+0  00000+0 0  9995", "line2": "2 40129  49.0858 279.9095 1649125 173.2442 189.3393  1.85520466 77135"}}, "geometry": {"type": "Point", "coordinates": [-61.04194435862032, 20.749680999188136]}}, {"type": "Feature", "properties": {"norad_id": 40269, "name": "IRNSS-1C", "group": "gnss", "lat": 0.3477572127154499, "lon": 95.47163617453303, "alt_km": 35708.96827100788, "timestamp": "2025-12-20T18:51:31.957301+00:00", "meta": {"OBJECT_NAME": "IRNSS-1C", "OBJECT_ID": "2014-061A", "EPOCH": "2025-12-20T08:29:20.855904", "MEAN_MOTION": 1.00273998, "ECCENTRICITY": 0.0018053, "INCLINATION": 6.0609, "RA_OF_ASC_NODE": 92.4696, "ARG_OF_PERICENTER": 1.2352, "MEAN_ANOMALY": 205.8049, "EPHEMERIS_TYPE": 0, "CLASSIFICATION_TYPE": "U", "NORAD_CAT_ID": 40269, "ELEMENT_SET_NO": 999, "REV_AT_EPOCH": 4089, "BSTAR": 0, "MEAN_MOTION_DOT": -1.43e-06, "MEAN_MOTION_DDOT": 0}, "tle": {"line1": "1 40269U 14061A   25354.35371361 -.00000143  00000+0  00000+0 0  9998", "line2": "2 40269   6.0609  92.4696 0018053   1.2352 205.8049  1.00273998 40898"}}, "geometry": {"type": "Point", "coordinates": [95.47163617453303, 0.3477572127154499]}}, {"type": "Feature", "properties": {"norad_id": 40294, "name": "GPS BIIF-8  (PRN 03)", "group": "gnss", "lat": -53.12061273325107, "lon": -81.67372155726723, "alt_km": 20349.360673765823, "timestamp": "2025-12-20T18:51:31.957314+00:00", "meta": {"OBJECT_NAME": "GPS BIIF-8  (PRN 03)", "OBJECT_ID": "2014-068A", "EPOCH": "2025-12-20T10:28:39.196128", "MEAN_MOTION": 2.00565411, "ECCENTRICITY": 0.00608131, "INCLINATION": 56.8634, "RA_OF_ASC_NODE": 37.8483, "ARG_OF_PERICENTER": 69.0316, "MEAN_ANOMALY": 291.6877, "EPHEMERIS_TYPE": 0, "CLASSIFICATION_TYPE": "U", "NORAD_CAT_ID": 40294, "ELEMENT_SET_NO": 999, "REV_AT_EPOCH": 8162, "BSTAR": 0, "MEAN_MOTION_DOT": -5.6e-07, "MEAN_MOTION_DDOT": 0}, "tle": {"line1": "1 40294U 14068A   25354.43656477 -.00000056  00000+0  00000+0 0  9999", "line2": "2 40294  56.8634  37.8483 0060813  69.0316 291.6877  2.00565411 81620"}}, "geometry": {"type": "Point", "coordinates": [-81.67372155726723, -53.12061273325107]}}]}